{
  "type": "FeatureCollection",
  "sample": true,
  "features": [
    {
      "type": "Feature",
      "geometry": {
        "type": "Point",
        "coordinates": [
          -99.999824,
          40.0
        ]
      },
      "properties": {
        "name": "Sample ALPR A",
        "operator": "SAMPLE",
        "kind": "alpr",
        "direction": 0,
        "source": "sample",
        "observed": "synthetic"
      }
    },
    {
      "type": "Feature",
      "geometry": {
        "type": "Point",
        "coordinates": [
          -99.999824,
          40.010792
        ]
      },
      "properties": {
        "name": "Sample Speed B",
        "operator": "SAMPLE",
        "kind": "speed",
        "direction": 0,
        "source": "sample",
        "observed": "synthetic"
      }
    },
    {
      "type": "Feature",
      "geometry": {
        "type": "Point",
        "coordinates": [
          -99.992956,
          40.003597
        ]
      },
      "properties": {
        "name": "Sample Red-light C (off-axis)",
        "operator": "SAMPLE",
        "kind": "redlight",
        "direction": 270,
        "source": "sample",
        "observed": "synthetic"
      }
    },
    {
      "type": "Feature",
      "geometry": {
        "type": "Point",
        "coordinates": [
          -99.999824,
          39.988309
        ]
      },
      "properties": {
        "name": "Sample ALPR D (behind start)",
        "operator": "SAMPLE",
        "kind": "alpr",
        "direction": 180,
        "source": "sample",
        "observed": "synthetic"
      }
    }
  ]
}
